DELTA 2 R/B(1)          
1 20453U 90008B   26119.65734022  .00063721  00000+0  60101-3 0  9998
2 20453  35.6015 198.6623 0072907  17.0143 343.3018 15.62449776934090
COSMOS 2058             
1 20465U 90010A   26119.75390992  .00003104  00000+0  18038-3 0  9990
2 20465  82.4688 357.1152 0010268 147.2841 212.9027 15.11721705949952
SL-14 R/B               
1 20466U 90010B   26119.74323772  .00000462  00000+0  52932-4 0  9998
2 20466  82.5043 219.4327 0021031 129.1235 231.1854 14.83615515936056
SL-14 R/B               
1 20511U 90018B   26119.60745580  .00000355  00000+0  41591-4 0  9997
2 20511  82.5225 175.5138 0014740 285.5931  74.3656 14.82186969930124
HST                     
1 20580U 90037B   26119.49850698  .00006626  00000+0  21264-3 0  9999
2 20580  28.4754  53.1938 0001749 330.3355  29.7141 15.30199246781100
SL-16 R/B               
1 20625U 90046B   26119.66591130  .00000275  00000+0  16666-3 0  9995
2 20625  70.9988 190.8520 0015910 231.8378 128.1312 14.15017045855601
COSMOS 2084             
1 20663U 90055A   26119.85612674  .00002106  00000+0  15779-3 0  9994
2 20663  62.7889 161.0258 0009072 213.3165 146.7365 15.05920512944022
SL-6 R/B(2)             
1 20666U 90055D   26119.84319865  .00002668  00000+0  20547-3 0  9994
2 20666  62.7825  79.8604 0033027 357.5957   2.4978 15.03819516945885
SL-8 R/B                
1 20775U 90078B   26119.75532403  .00023888  00000+0  69593-3 0  9996
2 20775  82.9060 205.3384 0355883 201.4822 157.1149 14.90558548816905
SL-8 R/B                
1 21088U 91006B   26119.55565637  .00000195  00000+0  18064-3 0  9992
2 21088  82.9396 132.2163 0021005 251.5341 235.1422 13.77505651771076
OKEAN-3                 
1 21397U 91039A   26119.60972611  .00004021  00000+0  28032-3 0  9999
2 21397  82.5135 287.4842 0014602 152.4606 207.7398 15.05081605872699
COSMOS 2151             
1 21422U 91042A   26119.84136245  .00001943  00000+0  15279-3 0  9992
2 21422  82.4990  34.3279 0010724 243.9814 116.0306 15.00307988870865
SL-14 R/B               
1 21423U 91042B   26119.60385175  .00000360  00000+0  42380-4 0  9991
2 21423  82.4940 172.4548 0018529  75.5107 284.8161 14.81872566860611
ERS-1                   
1 21574U 91050A   26119.64814954  .00000339  00000+0  12298-3 0  9993
2 21574  98.7830 139.1546 0032851  52.5922 307.8247 14.39486032823069
ARIANE 40 R/B           
1 21610U 91050F   26119.85537061  .00000301  00000+0  10262-3 0  9996
2 21610  98.1915 170.1456 0001764 281.8766  78.2227 14.42927745826374
INTERCOSMOS 25          
1 21819U 91086A   26119.58392090  .00000934  00000+0  18032-3 0  9992
2 21819  82.5996 279.2236 1485655   7.2401 354.7735 12.12135150502856
SL-8 R/B                
1 21876U 92008B   26119.77907678  .00000056  00000+0  41611-4 0  9990
2 21876  82.9283 229.7745 0034315 354.2673 116.0123 13.75971075716441
SL-8 R/B                
1 21938U 92020B   26119.62536411 -.00000034  00000+0 -51518-4 0  9995
2 21938  82.9269 115.9297 0029628 153.0866 345.7214 13.75548100708130
USA 81                  
1 21949U 92023A   26119.86422032  .00000200  00000+0  66806-4 0  9998
2 21949  85.0039 101.8979 0001452 107.8517 252.2834 14.32383944102110
COSMOS 2219             
1 22219U 92076A   26119.73536831  .00000324  00000+0  19437-3 0  9990
2 22219  71.0602 271.3570 0016575 125.9121 234.3542 14.14099054725592
SL-16 R/B               
1 22220U 92076B   26119.88245846  .00000035  00000+0  41429-4 0  9997
2 22220  70.9990  80.5355 0012313   6.8883  60.4878 14.16865292729086
COSMOS 2221             
1 22236U 92080A   26119.72826714  .00001957  00000+0  17012-3 0  9995
2 22236  82.5049 230.1814 0014690  26.9134 333.2846 14.96403966788425
SL-16 R/B               
1 22285U 92093B   26119.83383597  .00000217  00000+0  13541-3 0  9993
2 22285  71.0217 256.8968 0006096 242.5332 117.5172 14.15460233720399
COSMOS 2228             
1 22286U 92094A   26119.84388157  .00001894  00000+0  15998-3 0  9993
2 22286  82.5198 188.3392 0019243 127.4174 232.8803 14.97425838783717
SL-16 R/B               
1 22566U 93016B   26119.38468233 -.00000231  00000+0 -94177-4 0  9995
2 22566  71.0037 108.7083 0012469 250.1033 109.8747 14.15308064709345
COSMOS 2242             
1 22626U 93024A   26119.78171441  .00001722  00000+0  14792-3 0  9995
2 22626  82.5210 217.8417 0017531 130.7442 229.5306 14.96760169788038
SL-16 R/B               
1 22803U 93059B   26119.85989296  .00000255  00000+0  15007-3 0  9993
2 22803  70.9899 263.2155 0015656 137.8487 222.3844 14.17240584686780
ARIANE 40 R/B           
1 22830U 93061H   26119.81407640  .00000208  00000+0  91684-4 0  9994
2 22830  98.4839 187.6707 0011752 129.5158 230.7066 14.32886413701429
COSMOS 2278             
1 23087U 94023A   26119.87229492  .00000055  00000+0  53360-4 0  9990
2 23087  71.0545  68.0109 0010775 302.5625  57.4457 14.14388933652044
SL-16 R/B               
1 23088U 94023B   26119.75432126  .00000172  00000+0  11353-3 0  9993
2 23088  70.9997 323.6477 0004976 237.1676 122.8967 14.15015931653317
SL-16 R/B               
1 23343U 94074B   26119.66462318  .00000465  00000+0  68842-4 0  9990
2 23343  97.7032 148.3994 0007879  62.1383  51.8489 14.79460138694789
SL-16 R/B               
1 23405U 94077B   26119.78666676 -.00000110  00000+0 -31510-4 0  9999
2 23405  70.9833 244.9864 0000276  56.6480 303.4669 14.15572786623465
ARIANE 40+ R/B          
1 23561U 95021B   26119.83621788  .00000270  00000+0  10008-3 0  9996
2 23561  98.4426 190.6053 0006462 359.6857 114.6092 14.39805875626600
SL-16 R/B               
1 23705U 95058B   26119.86679795 -.00000256  00000+0 -10661-3 0  9991
2 23705  71.0211  72.8074 0011133  32.0454 328.1343 14.15503787575097
SL-16 R/B               
1 24298U 96051B   26119.87372551  .00000091  00000+0  75913-4 0  9991
2 24298  70.7613  66.9007 0012516  58.7339 301.5004 14.12429107528873
ORBVIEW 2 (SEASTAR)     
1 24883U 97037A   26119.43916741  .00000257  00000+0  10571-3 0  9995
2 24883  98.8645 285.1178 0001114 267.4234  92.6823 14.35527428515758
SL-16 R/B               
1 25400U 98043G   26119.88048581  .00000047  00000+0  38866-4 0  9991
2 25400  98.8332  73.6341 0009056 221.7907 138.2581 14.26060627446284
SL-16 R/B               
1 25407U 98045B   26119.85260388 -.00000014  00000+0  17081-4 0  9999
2 25407  71.0106  73.9771 0009328 298.5395  61.4789 14.16196462434345
ISS (ZARYA)             
1 25544U 98067A   26119.68381909  .00007324  00000+0  14081-3 0  9995
2 25544  51.6318 180.1788 0007117   4.9077 355.1979 15.49024031564230
CZ-4B R/B               
1 25732U 99025C   26119.75258081  .00000070  00000+0  54583-4 0  9994
2 25732  98.6528 162.7997 0036823 196.3348 277.1614 14.18274836395409
OKEAN-O                 
1 25860U 99039A   26119.68362391  .00000664  00000+0  93770-4 0  9993
2 25860  97.9351 179.0308 0001605 112.2597 247.8785 14.80407979441935
SL-16 R/B               
1 25861U 99039B   26119.75073705  .00000589  00000+0  81334-4 0  9999
2 25861  97.9873 178.7443 0016177  91.9446 268.3619 14.81795020444426
DELTA 2 R/B             
1 25876U 99041E   26119.33781142  .00000578  00000+0  13239-3 0  9999
2 25876  51.7602  98.9402 0502399 137.7855 226.2919 14.11935284370185
HELIOS 1B               
1 25977U 99064A   26119.69278712  .00001724  00000+0  19478-3 0  9994
2 25977  98.1650  23.4255 0000407 114.8110 245.3148 14.87874218692845
TERRA                   
1 25994U 99068A   26119.89500309  .00000432  00000+0  96995-4 0  9994
2 25994  97.9497 171.3468 0003006  48.4672 124.4466 14.61063796402552
SL-16 R/B               
1 26070U 00006B   26119.88133740  .00000250  00000+0  15095-3 0  9993
2 26070  71.0042 350.1986 0014476 105.8583 254.4137 14.15833034355804
TITAN 4B R/B            
1 26474U 00047B   26119.77412166  .00003248  00000+0  20388-3 0  9997
2 26474  67.9883 256.8138 0042813 337.2960  22.6294 15.09938546400624
ENVISAT                 
1 27386U 02009A   26119.84650625  .00000101  00000+0  46428-4 0  9991
2 27386  98.3804  72.2528 0001133  87.6697 283.3277 14.39052973266534
IDEFIX & ARIANE 42P R/B 
1 27422U 02021B   26119.81645920  .00000262  00000+0  11607-3 0  9993
2 27422  98.5924  57.8305 0012660  41.1600 319.0535 14.31057935251339
AQUA                    
1 27424U 02022A   26119.87474212  .00000933  00000+0  19558-3 0  9994
2 27424  98.4248  88.2050 0002076  91.4783 320.9326 14.62081375276216
CZ-4B R/B               
1 27432U 02024C   26119.79858137  .00000040  00000+0  43831-4 0  9999
2 27432  98.8739 172.9224 0049256 237.1343 236.0165 14.14556248236464
MIDORI II (ADEOS-II)    
1 27597U 02056A   26119.83648155  .00000310  00000+0  13961-3 0  9998
2 27597  98.7845  78.6961 0000993 140.6780 219.4474 14.29321330217602
H-2A R/B                
1 27601U 02056E   26119.85907433  .00000366  00000+0  14254-3 0  9990
2 27601  98.3281  78.3049 0070501  10.2117  43.5374 14.33796453221449
CZ-4B R/B               
1 28059U 03049C   26119.54602659  .00000441  00000+0  11236-3 0  9990
2 28059  98.6898 116.4600 0049311  76.8495 283.8197 14.55063386193999
CZ-2C R/B               
1 28222U 04012C   26119.73687530  .00077824  00000+0  61685-3 0  9997
2 28222  97.7130 190.0914 0013170 122.9910 237.2619 15.70952549212276
SL-16 R/B               
1 28353U 04021B   26119.44067893 -.00000210  00000+0 -84487-4 0  9997
2 28353  70.9981 125.9903 0006914 305.5467  54.5010 14.14603163130015
CZ-4B R/B               
1 28415U 04035C   26119.80840061  .00007483  00000+0  25712-3 0  9999
2 28415  97.3413 153.4446 0032688 144.6855 215.6560 15.29877743187729
CZ-2C R/B               
1 28480U 04046B   26119.74124906  .00000198  00000+0  88875-4 0  9995
2 28480  98.1970  31.5427 0139571   4.4412 355.7973 14.27012164115780
ARIANE 5 R/B            
1 28499U 04049H   26119.35975753  .00001141  00000+0  13157-3 0  9998
2 28499  98.2690 289.7377 0083915 186.0068 174.0148 14.85362197153310
